OBJECT_NAME,OBJECT_ID,EPOCH,MEAN_MOTION,ECCENTRICITY,INCLINATION,RA_OF_ASC_NODE,ARG_OF_PERICENTER,MEAN_ANOMALY,EPHEMERIS_TYPE,CLASSIFICATION_TYPE,NORAD_CAT_ID,ELEMENT_SET_NO,REV_AT_EPOCH,BSTAR,MEAN_MOTION_DOT,MEAN_MOTION_DDOT
STARLINK-32474,2024-175T,2024-10-05T22:00:00.999936,15.8393782400,0.0001016000,53.1641000000,100.1315000000,45.2349000000,145.4523000000,0,U,61260,999,286,-0.0037219000,-0.0077721900,0E-10
STARLINK-32447,2024-175U,2024-10-05T22:00:00.999936,15.8396340900,0.0001071000,53.1640000000,100.1163000000,50.4988000000,147.5106000000,0,U,61261,999,290,-0.0038674000,-0.0080592300,0E-10
STARLINK-32446,2024-175V,2024-10-05T22:00:00.999936,15.8395184700,0.0000999000,53.1641000000,100.1238000000,43.8739000000,150.5493000000,0,U,61262,999,291,-0.0038044000,-0.0079347800,0E-10
2024-174F,2024-174F,2024-10-05T23:10:11.970912,15.5712800300,0.0175264000,97.4333000000,285.6893000000,351.0486000000,8.7654000000,0,U,61263,999,166,0.0014438000,0.0021609600,0.0000142840
2024-174G,2024-174G,2024-10-05T21:13:54.382080,15.6226351800,0.0159644000,97.4305000000,285.6424000000,351.2037000000,8.6428000000,0,U,61443,999,146,0.0031176000,0.0052937100,0.0000815710
SHIJIAN-19 (SJ-19),2024-177A,2024-10-05T21:34:07.354272,15.7839828600,0.0007535000,41.6003000000,106.8345000000,354.2323000000,5.8437000000,0,U,61444,999,148,0.0001163300,0.0002040700,0E-10
CZ-2D R/B,2024-177B,2024-10-05T19:49:07.394592,15.8273766400,0.0020279000,41.3914000000,106.9119000000,312.6448000000,47.2688000000,0,U,61445,999,133,0.0011579000,0.0026364000,0E-10
CREW DRAGON 9,2024-178A,2024-10-05T19:00:24.829920,15.4926304800,0.0009172000,51.6361000000,127.5460000000,40.4137000000,319.7532000000,0,U,61447,999,47550,0.0005684600,0.0003132600,0E-10
2024-179A,2024-179A,2024-10-04T11:40:56.159904,15.2352986700,0.0004000000,30.0000000000,357.3088000000,321.8000000000,177.5900000000,0,U,61448,999,0,0E-10,0.0000014800,0E-10
